[{"OBJECT_NAME":"SL-16 R/B","OBJECT_ID":"1993-059B","EPOCH":"2026-03-20T04:55:33.808224","MEAN_MOTION":14.17233892,"ECCENTRICITY":0.00179199,"INCLINATION":70.9931,"RA_OF_ASC_NODE":348.9528,"ARG_OF_PERICENTER":201.2387,"MEAN_ANOMALY":158.7995,"EPHEMERIS_TYPE":0,"CLASSIFICATION_TYPE":"U","NORAD_CAT_ID":22803,"ELEMENT_SET_NO":999,"REV_AT_EPOCH":68102,"BSTAR":0.00013619924,"MEAN_MOTION_DOT":2.27e-6,"MEAN_MOTION_DDOT":0},{"OBJECT_NAME":"ARIANE 40 R/B","OBJECT_ID":"1993-061H","EPOCH":"2026-03-20T04:09:18.571104","MEAN_MOTION":14.32866037,"ECCENTRICITY":0.00096499,"INCLINATION":98.4896,"RA_OF_ASC_NODE":147.853,"ARG_OF_PERICENTER":250.3812,"MEAN_ANOMALY":109.6331,"EPHEMERIS_TYPE":0,"CLASSIFICATION_TYPE":"U","NORAD_CAT_ID":22830,"ELEMENT_SET_NO":999,"REV_AT_EPOCH":69560,"BSTAR":7.5047547e-5,"MEAN_MOTION_DOT":1.62e-6,"MEAN_MOTION_DDOT":0},{"OBJECT_NAME":"COSMOS 2278","OBJECT_ID":"1994-023A","EPOCH":"2026-03-20T06:38:50.231328","MEAN_MOTION":14.14378475,"ECCENTRICITY":0.00087588,"INCLINATION":71.054,"RA_OF_ASC_NODE":152.9496,"ARG_OF_PERICENTER":355.2414,"MEAN_ANOMALY":4.8623,"EPHEMERIS_TYPE":0,"CLASSIFICATION_TYPE":"U","NORAD_CAT_ID":23087,"ELEMENT_SET_NO":999,"REV_AT_EPOCH":64630,"BSTAR":-7.5578639e-5,"MEAN_MOTION_DOT":-1.92e-6,"MEAN_MOTION_DDOT":0},{"OBJECT_NAME":"SL-16 R/B","OBJECT_ID":"1994-023B","EPOCH":"2026-03-20T02:33:32.240160","MEAN_MOTION":14.15010241,"ECCENTRICITY":0.00055073,"INCLINATION":70.9994,"RA_OF_ASC_NODE":49.0084,"ARG_OF_PERICENTER":275.4509,"MEAN_ANOMALY":84.5985,"EPHEMERIS_TYPE":0,"CLASSIFICATION_TYPE":"U","NORAD_CAT_ID":23088,"ELEMENT_SET_NO":999,"REV_AT_EPOCH":64756,"BSTAR":4.5705929e-5,"MEAN_MOTION_DOT":4.1e-7,"MEAN_MOTION_DDOT":0},{"OBJECT_NAME":"SL-16 R/B","OBJECT_ID":"1994-074B","EPOCH":"2026-03-20T01:37:02.128800","MEAN_MOTION":14.79419423,"ECCENTRICITY":0.00066053,"INCLINATION":97.7094,"RA_OF_ASC_NODE":109.4644,"ARG_OF_PERICENTER":174.7822,"MEAN_ANOMALY":210.963,"EPHEMERIS_TYPE":0,"CLASSIFICATION_TYPE":"U","NORAD_CAT_ID":23343,"ELEMENT_SET_NO":999,"REV_AT_EPOCH":68878,"BSTAR":5.9793514e-5,"MEAN_MOTION_DOT":3.97e-6,"MEAN_MOTION_DDOT":0},{"OBJECT_NAME":"SL-16 R/B","OBJECT_ID":"1994-077B","EPOCH":"2026-03-20T03:42:59.041728","MEAN_MOTION":14.15566123,"ECCENTRICITY":0.00024794,"INCLINATION":70.9848,"RA_OF_ASC_NODE":330.4741,"ARG_OF_PERICENTER":200.3574,"MEAN_ANOMALY":159.7451,"EPHEMERIS_TYPE":0,"CLASSIFICATION_TYPE":"U","NORAD_CAT_ID":23405,"ELEMENT_SET_NO":999,"REV_AT_EPOCH":61771,"BSTAR":0.00017679263,"MEAN_MOTION_DOT":2.98e-6,"MEAN_MOTION_DDOT":0},{"OBJECT_NAME":"ARIANE 40+ R/B","OBJECT_ID":"1995-021B","EPOCH":"2026-03-20T04:05:19.739040","MEAN_MOTION":14.39779426,"ECCENTRICITY":0.00079323,"INCLINATION":98.4478,"RA_OF_ASC_NODE":150.5101,"ARG_OF_PERICENTER":109.24,"MEAN_ANOMALY":305.3389,"EPHEMERIS_TYPE":0,"CLASSIFICATION_TYPE":"U","NORAD_CAT_ID":23561,"ELEMENT_SET_NO":999,"REV_AT_EPOCH":62075,"BSTAR":8.6414358e-5,"MEAN_MOTION_DOT":2.28e-6,"MEAN_MOTION_DDOT":0},{"OBJECT_NAME":"SL-16 R/B","OBJECT_ID":"1995-058B","EPOCH":"2026-03-20T07:17:17.202048","MEAN_MOTION":14.15500744,"ECCENTRICITY":0.00102856,"INCLINATION":71.0221,"RA_OF_ASC_NODE":157.973,"ARG_OF_PERICENTER":106.233,"MEAN_ANOMALY":253.9925,"EPHEMERIS_TYPE":0,"CLASSIFICATION_TYPE":"U","NORAD_CAT_ID":23705,"ELEMENT_SET_NO":999,"REV_AT_EPOCH":56935,"BSTAR":2.8235009e-5,"MEAN_MOTION_DOT":8.0e-8,"MEAN_MOTION_DDOT":0},{"OBJECT_NAME":"SL-16 R/B","OBJECT_ID":"1996-051B","EPOCH":"2026-03-20T07:02:32.078112","MEAN_MOTION":14.1241846,"ECCENTRICITY":0.00141843,"INCLINATION":70.7597,"RA_OF_ASC_NODE":152.7964,"ARG_OF_PERICENTER":131.3765,"MEAN_ANOMALY":228.8577,"EPHEMERIS_TYPE":0,"CLASSIFICATION_TYPE":"U","NORAD_CAT_ID":24298,"ELEMENT_SET_NO":999,"REV_AT_EPOCH":52314,"BSTAR":7.7351698e-5,"MEAN_MOTION_DOT":9.4e-7,"MEAN_MOTION_DDOT":0},{"OBJECT_NAME":"ORBVIEW 2 (SEASTAR)","OBJECT_ID":"1997-037A","EPOCH":"2026-03-20T06:59:35.348640","MEAN_MOTION":14.35502008,"ECCENTRICITY":0.00027711,"INCLINATION":98.8584,"RA_OF_ASC_NODE":243.885,"ARG_OF_PERICENTER":49.5766,"MEAN_ANOMALY":310.566,"EPHEMERIS_TYPE":0,"CLASSIFICATION_TYPE":"U","NORAD_CAT_ID":24883,"ELEMENT_SET_NO":999,"REV_AT_EPOCH":50999,"BSTAR":9.1739836e-5,"MEAN_MOTION_DOT":2.17e-6,"MEAN_MOTION_DDOT":0},{"OBJECT_NAME":"SL-16 R/B","OBJECT_ID":"1998-043G","EPOCH":"2026-03-20T06:08:46.013568","MEAN_MOTION":14.26052051,"ECCENTRICITY":0.00096579,"INCLINATION":98.8273,"RA_OF_ASC_NODE":32.6954,"ARG_OF_PERICENTER":350.273,"MEAN_ANOMALY":9.8261,"EPHEMERIS_TYPE":0,"CLASSIFICATION_TYPE":"U","NORAD_CAT_ID":25400,"ELEMENT_SET_NO":999,"REV_AT_EPOCH":44049,"BSTAR":3.627685e-5,"MEAN_MOTION_DOT":4.1e-7,"MEAN_MOTION_DDOT":0},{"OBJECT_NAME":"SL-16 R/B","OBJECT_ID":"1998-045B","EPOCH":"2026-03-20T05:43:48.433728","MEAN_MOTION":14.16195282,"ECCENTRICITY":0.00074398,"INCLINATION":71.0118,"RA_OF_ASC_NODE":159.3911,"ARG_OF_PERICENTER":351.3002,"MEAN_ANOMALY":8.7991,"EPHEMERIS_TYPE":0,"CLASSIFICATION_TYPE":"U","NORAD_CAT_ID":25407,"ELEMENT_SET_NO":999,"REV_AT_EPOCH":42859,"BSTAR":5.2059474e-5,"MEAN_MOTION_DOT":5.5e-7,"MEAN_MOTION_DDOT":0},{"OBJECT_NAME":"ISS (ZARYA)","OBJECT_ID":"1998-067A","EPOCH":"2026-03-20T03:53:37.593024","MEAN_MOTION":15.48388697,"ECCENTRICITY":0.00062344,"INCLINATION":51.6345,"RA_OF_ASC_NODE":20.5881,"ARG_OF_PERICENTER":211.0869,"MEAN_ANOMALY":148.9751,"EPHEMERIS_TYPE":0,"CLASSIFICATION_TYPE":"U","NORAD_CAT_ID":25544,"ELEMENT_SET_NO":999,"REV_AT_EPOCH":55795,"BSTAR":0.00016519966,"MEAN_MOTION_DOT":8.474e-5,"MEAN_MOTION_DDOT":0},{"OBJECT_NAME":"CZ-4B R/B","OBJECT_ID":"1999-025C","EPOCH":"2026-03-20T02:23:36.518208","MEAN_MOTION":14.18267282,"ECCENTRICITY":0.00362607,"INCLINATION":98.6605,"RA_OF_ASC_NODE":123.1337,"ARG_OF_PERICENTER":316.2022,"MEAN_ANOMALY":69.8522,"EPHEMERIS_TYPE":0,"CLASSIFICATION_TYPE":"U","NORAD_CAT_ID":25732,"ELEMENT_SET_NO":999,"REV_AT_EPOCH":38964,"BSTAR":3.8553774e-5,"MEAN_MOTION_DOT":3.7e-7,"MEAN_MOTION_DDOT":0},{"OBJECT_NAME":"OKEAN-O","OBJECT_ID":"1999-039A","EPOCH":"2026-03-20T03:05:35.748672","MEAN_MOTION":14.80351489,"ECCENTRICITY":9.804e-5,"INCLINATION":97.9419,"RA_OF_ASC_NODE":138.9132,"ARG_OF_PERICENTER":76.6877,"MEAN_ANOMALY":283.4444,"EPHEMERIS_TYPE":0,"CLASSIFICATION_TYPE":"U","NORAD_CAT_ID":25860,"ELEMENT_SET_NO":999,"REV_AT_EPOCH":43593,"BSTAR":8.0766807e-5,"MEAN_MOTION_DOT":5.64e-6,"MEAN_MOTION_DDOT":0},{"OBJECT_NAME":"SL-16 R/B","OBJECT_ID":"1999-039B","EPOCH":"2026-03-20T03:59:42.193248","MEAN_MOTION":14.81744904,"ECCENTRICITY":0.00139327,"INCLINATION":97.9943,"RA_OF_ASC_NODE":138.2464,"ARG_OF_PERICENTER":219.3554,"MEAN_ANOMALY":140.6647,"EPHEMERIS_TYPE":0,"CLASSIFICATION_TYPE":"U","NORAD_CAT_ID":25861,"ELEMENT_SET_NO":999,"REV_AT_EPOCH":43841,"BSTAR":6.264635e-5,"MEAN_MOTION_DOT":4.4e-6,"MEAN_MOTION_DDOT":0},{"OBJECT_NAME":"DELTA 2 R/B","OBJECT_ID":"1999-041E","EPOCH":"2026-03-19T16:57:28.264032","MEAN_MOTION":14.1186331,"ECCENTRICITY":0.05025928,"INCLINATION":51.7607,"RA_OF_ASC_NODE":261.2673,"ARG_OF_PERICENTER":17.9781,"MEAN_ANOMALY":343.8236,"EPHEMERIS_TYPE":0,"CLASSIFICATION_TYPE":"U","NORAD_CAT_ID":25876,"ELEMENT_SET_NO":999,"REV_AT_EPOCH":36444,"BSTAR":0.00010292501,"MEAN_MOTION_DOT":3.93e-6,"MEAN_MOTION_DDOT":0}]
